FENGYUN 1C DEB          
1 38504U 99025ESP 17345.39147632  .00001069  00000-0  64978-3 0  9993
2 38504  98.0239 195.5925 0215145 152.0175 209.2757 13.97042052438794
